NORAD_CAT_ID,OBJECT_NAME,OBJECT_TYPE,EPOCH,MEAN_MOTION,ECCENTRICITY,INCLINATION,RA_OF_ASC_NODE,ARG_OF_PERICENTER,MEAN_ANOMALY,BSTAR,MEAN_MOTION_DOT,MEAN_MOTION_DDOT,TLE_LINE0,TLE_LINE1,TLE_LINE2,SEMIMAJOR_AXIS,PERIOD,APOGEE,PERIGEE,DECAYED
51782.0,STARLINK-3616,PAYLOAD,2022-03-23 22:00:00,15.66137975,0.0001250999999999,53.2174,13.6608,59.9495,67.8235,-0.0074601,-0.00716815,0.0,0 STARLINK-3616,1 51782U 22017Q   22082.91667824 -.00716815  00000-0 -74601-2 0  9992,2 51782  53.2174  13.6608 0001251  59.9495  67.8235 15.66137975  5366,6748.105,91.946,370.814,369.126,0.0
51782.0,STARLINK-3616,PAYLOAD,2022-03-24 14:00:01,15.65117497,0.000124,53.2176,10.396,58.0545,229.3691,-0.0077608999999999,-0.00715738,0.0,0 STARLINK-3616,1 51782U 22017Q   22083.58334491 -.00715738  00000-0 -77609-2 0  9991,2 51782  53.2176  10.3960 0001240  58.0545 229.3691 15.65117497  3687,6751.038000000001,92.006,373.74,372.066,0.0
51782.0,STARLINK-3616,PAYLOAD,2022-03-24 22:00:00,15.64609584,0.0001243,53.2177,8.7661,51.7859,314.5427,-0.0079613,-0.00719125,0.0,0 STARLINK-3616,1 51782U 22017Q   22083.91667824 -.00719125  00000-0 -79613-2 0  9998,2 51782  53.2177   8.7661 0001243  51.7859 314.5427 15.64609584  3707,6752.499,92.036,375.203,373.524,0.0
51782.0,STARLINK-3616,PAYLOAD,2022-03-25 00:00:02,15.64479714,0.0001431999999999,53.2174,8.3593,47.9578,68.0672,-0.0079561,-0.00715314,0.0,0 STARLINK-3616,1 51782U 22017Q   22084.00002315 -.00715314  00000-0 -79561-2 0  9995,2 51782  53.2174   8.3593 0001432  47.9578  68.0672 15.64479714  5535,6752.873000000001,92.043,375.705,373.77,0.0
51782.0,STARLINK-3616,PAYLOAD,2022-03-25 14:00:01,15.63586014,0.0001374,53.2174,5.5084,50.7141,111.5896,-0.0082074,-0.00712373,0.0,0 STARLINK-3616,1 51782U 22017Q   22084.58334491 -.00712373  00000-0 -82074-2 0  9996,2 51782  53.2174   5.5084 0001374  50.7141 111.5896 15.63586014  3690,6755.445,92.096,378.239,376.382,0.0
51782.0,STARLINK-3616,PAYLOAD,2022-03-25 22:00:01,15.63077388,0.0001411,53.2176,3.8824,56.2421,183.1935,-0.0084046,-0.00714754,0.0,0 STARLINK-3616,1 51782U 22017Q   22084.91668981 -.00714754  00000-0 -84046-2 0  9993,2 51782  53.2176   3.8824 0001411  56.2421 183.1935 15.63077388  3743,6756.911,92.126,379.729,377.822,0.0
51782.0,STARLINK-3616,PAYLOAD,2022-03-26 06:00:00,15.62566323,0.0001095,53.2172,2.2583,76.5771,239.2474,-0.0085427,-0.00712181,0.0,0 STARLINK-3616,1 51782U 22017Q   22085.25001157 -.00712181  00000-0 -85427-2 0  9993,2 51782  53.2172   2.2583 0001095  76.5771 239.2474 15.62566323  5738,6758.384,92.156,380.989,379.509,0.0
51782.0,STARLINK-3616,PAYLOAD,2022-03-26 14:00:01,15.62056036,0.0001076,53.2173,0.6321,61.9549,329.7134,-0.0087213,-0.00712619,0.0,0 STARLINK-3616,1 51782U 22017Q   22085.58334491 -.00712619  00000-0 -87213-2 0  9990,2 51782  53.2173   0.6321 0001076  61.9549 329.7134 15.62056036  3675,6759.856,92.186,382.448,380.99300000000005,0.0
51782.0,STARLINK-3616,PAYLOAD,2022-03-26 22:00:00,15.61547907,0.0001347,53.2174,359.0101,52.0728,54.8234,-0.0089331,-0.00715388,0.0,0 STARLINK-3616,1 51782U 22017Q   22085.91667824 -.00715388  00000-0 -89331-2 0  9995,2 51782  53.2174 359.0101 0001347  52.0728  54.8234 15.61547907  3706,6761.321999999999,92.216,384.098,382.276,0.0
51782.0,STARLINK-3616,PAYLOAD,2022-03-27 06:00:00,15.61036091,0.0001248,53.2172,357.3893,69.4029,112.1097,-0.0090613,-0.00711662,0.0,0 STARLINK-3616,1 51782U 22017Q   22086.25001157 -.00711662  00000-0 -90613-2 0  9990,2 51782  53.2172 357.3893 0001248  69.4029 112.1097 15.61036091  5882,6762.8,92.246,385.509,383.821,0.0
51782.0,STARLINK-3616,PAYLOAD,2022-03-27 14:00:01,15.60526356,0.0001157,53.2175,355.7668,61.6429,193.8745,-0.0092477,-0.00712048,0.0,0 STARLINK-3616,1 51782U 22017Q   22086.58334491 -.00712048  00000-0 -92477-2 0  9995,2 51782  53.2175 355.7668 0001157  61.6429 193.8745 15.60526356  3706,6764.273,92.277,386.92,385.355,0.0
51782.0,STARLINK-3616,PAYLOAD,2022-03-27 22:00:01,15.6001853,0.0001202,53.2176,354.1486,60.743,268.2289,-0.0094836,-0.00715724,0.0,0 STARLINK-3616,1 51782U 22017Q   22086.91668981 -.00715724  00000-0 -94836-2 0  9991,2 51782  53.2176 354.1486 0001202  60.7430 268.2289 15.60018530  3699,6765.741,92.307,388.419,386.792,0.0
51782.0,STARLINK-3616,PAYLOAD,2022-03-28 08:00:01,15.59381077,0.0001255,53.2171,352.1264,66.6655,83.1183,-0.0097198,-0.00715814,0.0,0 STARLINK-3616,1 51782U 22017Q   22087.33334491 -.00715814  00000-0 -97198-2 0  9998,2 51782  53.2171 352.1264 0001255  66.6655  83.1183 15.59381077  6055,6767.584,92.344,390.299,388.6,0.0
51782.0,STARLINK-3616,PAYLOAD,2022-03-28 14:00:01,15.58996817,0.0001262999999999,53.2172,350.9127,54.8979,59.0187,-0.0098203,-0.00712926,0.0,0 STARLINK-3616,1 51782U 22017Q   22087.58335648 -.00712926  00000-0 -98203-2 0  9999,2 51782  53.2172 350.9127 0001263  54.8979  59.0187 15.58996817  3705,6768.696,92.367,391.416,389.706,0.0
51782.0,STARLINK-3616,PAYLOAD,2022-03-28 22:00:00,15.58485847,0.0001515,53.2173,349.2983,51.1532,134.2507,-0.0099844,-0.00711079,0.0,0 STARLINK-3616,1 51782U 22017Q   22087.91667824 -.00711079  00000-0 -99844-2 0  9990,2 51782  53.2173 349.2983 0001515  51.1532 134.2507 15.58485847  3687,6770.176,92.397,393.066,391.015,0.0
51782.0,STARLINK-3616,PAYLOAD,2022-03-29 14:00:01,15.57466131,0.0001185,53.2173,346.0697,57.25899999999999,269.4121,-0.010382,-0.00711298,0.0,0 STARLINK-3616,1 51782U 22017Q   22088.58334491 -.00711298  00000-0 -10382-1 0  9997,2 51782  53.2173 346.0697 0001185  57.2590 269.4121 15.57466131  6251,6773.13,92.458,395.798,394.193,0.0
51782.0,STARLINK-3616,PAYLOAD,2022-03-29 22:00:00,15.56958998,0.0001325,53.2175,344.4593,48.353,348.0303,-0.010655,-0.00715814,0.0,0 STARLINK-3616,1 51782U 22017Q   22088.91667824 -.00715814  00000-0 -10655-1 0  9994,2 51782  53.2175 344.4593 0001325  48.3530 348.0303 15.56958998  3700,6774.601,92.488,397.364,395.568,0.0
51782.0,STARLINK-3616,PAYLOAD,2022-03-30 12:00:00,15.56064031,0.0001176,53.2176,341.6403,56.4835,10.4266,-0.010944,-0.00711373,0.0,0 STARLINK-3616,1 51782U 22017Q   22089.50001157 -.00711373  00000-0 -10944-1 0  9998,2 51782  53.2176 341.6403 0001176  56.4835  10.4266 15.56064031  6394,6777.198,92.541,399.86,398.266,0.0
51782.0,STARLINK-3616,PAYLOAD,2022-03-30 14:00:01,15.55824434,0.0001406999999999,53.2174,341.2392,43.4237,130.6727,-0.0085367999999999,-0.00560587,0.0,0 STARLINK-3616,1 51782U 22017Q   22089.58335648 -.00560587  00000-0 -85368-2 0  9993,2 51782  53.2174 341.2392 0001407  43.4237 130.6727 15.55824434  3668,6777.894,92.555,400.713,398.806,0.0
51782.0,STARLINK-3616,PAYLOAD,2022-03-30 22:00:00,15.55426015,0.0001534,53.2176,339.6311,51.2885,190.5616,-0.011191,-0.00710506,0.0,0 STARLINK-3616,1 51782U 22017Q   22089.91667824 -.00710506  00000-0 -11191-1 0  9994,2 51782  53.2176 339.6311 0001534  51.2885 190.5616 15.55426015  3721,6779.052,92.579,401.956,399.877,0.0
51782.0,STARLINK-3616,PAYLOAD,2022-03-31 14:00:01,15.54406208,0.0001057,53.2173,336.4169,78.0865,297.6778,-0.011634,-0.00711145,0.0,0 STARLINK-3616,1 51782U 22017Q   22090.58334491 -.00711145  00000-0 -11634-1 0  9992,2 51782  53.2173 336.4169 0001057  78.0865 297.6778 15.54406208  6563,6782.016,92.64,404.598,403.164,0.0
51782.0,STARLINK-3616,PAYLOAD,2022-03-31 22:00:00,15.53898647,0.0001426,53.2173,334.8143,47.5453,34.2542,-0.011912,-0.00714445,0.0,0 STARLINK-3616,1 51782U 22017Q   22090.91667824 -.00714445  00000-0 -11912-1 0  9993,2 51782  53.2173 334.8143 0001426  47.5453  34.2542 15.53898647  3686,6783.493,92.67,406.325,404.391,0.0
51782.0,STARLINK-3616,PAYLOAD,2022-04-01 14:00:01,15.52878389,0.0001369,53.2172,331.607,63.8009,148.2363,-0.012356,-0.00713978,0.0,0 STARLINK-3616,1 51782U 22017Q   22091.58334491 -.00713978  00000-0 -12356-1 0  9991,2 51782  53.2172 331.6070 0001369  63.8009 148.2363 15.52878389  6717,6786.464,92.731,409.258,407.4,0.0
51782.0,STARLINK-3616,PAYLOAD,2022-04-01 22:00:00,15.52367072,0.0001457,53.2173,330.0082,53.0043,223.2313,-0.012543,-0.00711668,0.0,0 STARLINK-3616,1 51782U 22017Q   22091.91667824 -.00711668  00000-0 -12543-1 0  9999,2 51782  53.2173 330.0082 0001457  53.0043 223.2313 15.52367072  3674,6787.954000000002,92.762,410.8080000000001,408.83,0.0
51782.0,STARLINK-3616,PAYLOAD,2022-04-02 14:00:01,15.51346953,0.0001184,53.2174,326.8083,60.4967,342.3645,-0.013009,-0.00720462,0.0,0 STARLINK-3616,1 51782U 22017Q   22092.58335648 -.00720462  00000-0 -13009-1 0  9999,2 51782  53.2174 326.8083 0001184  60.4967 342.3645 15.51346953  6873,6790.929,92.823,413.598,411.99,0.0
51782.0,STARLINK-3616,PAYLOAD,2022-04-02 22:00:01,15.50838922,0.000154,53.2174,325.2134,45.5793,59.6405,-0.013303,-0.00723272,0.0,0 STARLINK-3616,1 51782U 22017Q   22092.91668981 -.00723272  00000-0 -13303-1 0  9994,2 51782  53.2174 325.2134 0001540  45.5793  59.6405 15.50838922  3702,6792.4119999999975,92.853,415.323,413.231,0.0
51782.0,STARLINK-3616,PAYLOAD,2022-04-03 14:00:01,15.49886377,0.0001345,53.2174,322.0221,64.5145,163.5323,-3.0373e-05,-2.175e-05,0.0,0 STARLINK-3616,1 51782U 22017Q   22093.58334491 -.00002175  00000-0 -30373-4 0  9995,2 51782  53.2174 322.0221 0001345  64.5145 163.5323 15.49886377  7027,6795.195,92.91,417.974,416.146,0.0
51782.0,STARLINK-3616,PAYLOAD,2022-04-03 22:00:00,15.49823383,0.0001319,53.2164,320.4362,52.451,236.5023,0.00089259,0.00050424,0.0,0 STARLINK-3616,1 51782U 22017Q   22093.91667824  .00050424  00000-0  89259-3 0  9995,2 51782  53.2164 320.4362 0001319  52.4510 236.5023 15.49823383  7089,6795.379,92.914,418.141,416.348,0.0
51782.0,STARLINK-3616,PAYLOAD,2022-04-04 04:00:00,15.49844129,0.0001154,53.2148,319.2438,47.9232,196.655,0.00024474,0.00013443,0.0,0 STARLINK-3616,1 51782U 22017Q   22094.16667824  .00013443  00000-0  24474-3 0  9991,2 51782  53.2148 319.2438 0001154  47.9232 196.6550 15.49844129  7114,6795.319,92.913,417.968,416.399,0.0
